NORAD_CAT_ID,OBJECT_NAME,OBJECT_TYPE,EPOCH,MEAN_MOTION,ECCENTRICITY,INCLINATION,RA_OF_ASC_NODE,ARG_OF_PERICENTER,MEAN_ANOMALY,BSTAR,MEAN_MOTION_DOT,MEAN_MOTION_DDOT,TLE_LINE0,TLE_LINE1,TLE_LINE2,SEMIMAJOR_AXIS,PERIOD,APOGEE,PERIGEE,DECAYED
55304.0,STARLINK-5318,PAYLOAD,2023-06-13 00:00:00,15.05381041,0.0003033,70.0026,27.413,273.4821,277.781,-0.065272,-0.00870498,0.0,0 STARLINK-5318,1 55304U 23010AM  23164.00001157 -.00870498  00000-0 -65272-1 0  9994,2 55304  70.0026  27.4130 0003033 273.4821 277.7810 15.05381041  1301,6928.473,95.657,552.44,548.237,0.0
55304.0,STARLINK-5318,PAYLOAD,2023-06-13 14:00:01,15.04284457,0.0003099,70.0027,25.9275,268.4093,202.0755,-0.072978,-0.00939393,0.0,0 STARLINK-5318,1 55304U 23010AM  23164.58334491 -.00939393  00000-0 -72978-1 0  9998,2 55304  70.0027  25.9275 0003099 268.4093 202.0755 15.04284457 23161,6931.84,95.727,555.853,551.557,0.0
55304.0,STARLINK-5318,PAYLOAD,2023-06-13 22:00:00,15.03578847,0.000315,70.0026,25.0798,273.9705,200.7411,-0.068211,-0.00867023,0.0,0 STARLINK-5318,1 55304U 23010AM  23164.91667824 -.00867023  00000-0 -68211-1 0  9999,2 55304  70.0026  25.0798 0003150 273.9705 200.7411 15.03578847  1304,6934.009,95.771,558.058,553.689,0.0
55304.0,STARLINK-5318,PAYLOAD,2023-06-14 14:00:01,15.02328107,0.0003091,70.0027,23.387,268.3281,212.4207,-0.077018,-0.00951664,0.0,0 STARLINK-5318,1 55304U 23010AM  23165.58334491 -.00951664  00000-0 -77018-1 0  9994,2 55304  70.0027  23.3870 0003091 268.3281 212.4207 15.02328107  1302,6937.857,95.851,561.866,557.577,0.0
55304.0,STARLINK-5318,PAYLOAD,2023-06-14 22:00:00,15.01622326,0.0003155,70.0024,22.5419,274.413,208.2149,-0.071763,-0.00866022,0.0,0 STARLINK-5318,1 55304U 23010AM  23165.91667824 -.00866022  00000-0 -71763-1 0  9994,2 55304  70.0024  22.5419 0003155 274.4130 208.2149 15.01622326 23368,6940.03,95.896,564.085,559.706,0.0
55304.0,STARLINK-5318,PAYLOAD,2023-06-15 14:00:01,15.00371346,0.0003108,70.0024,20.8542,268.6804,215.2917,-0.081197,-0.00952711,0.0,0 STARLINK-5318,1 55304U 23010AM  23166.58334491 -.00952711  00000-0 -81197-1 0  9992,2 55304  70.0024  20.8542 0003108 268.6804 215.2917 15.00371346 23461,6943.887,95.976,567.911,563.594,0.0
55304.0,STARLINK-5318,PAYLOAD,2023-06-15 20:00:01,14.9973107,0.0003285,70.0023,20.222,271.5137,122.2061,-0.049959,-0.00582691,0.0,0 STARLINK-5318,1 55304U 23010AM  23166.83334491 -.00582691  00000-0 -49959-1 0  9996,2 55304  70.0023  20.2220 0003285 271.5137 122.2061 14.99731070 23508,6945.864,96.017,570.01,565.447,0.0
55304.0,STARLINK-5318,PAYLOAD,2023-06-16 06:00:00,14.99420348,0.0003144,70.0018,19.1697,273.6629,208.6088,-0.082536,-0.00945116,0.0,0 STARLINK-5318,1 55304U 23010AM  23167.25001157 -.00945116  00000-0 -82536-1 0  9996,2 55304  70.0018  19.1697 0003144 273.6629 208.6088 14.99420348 23567,6946.823,96.037,570.872,566.504,0.0
55304.0,STARLINK-5318,PAYLOAD,2023-06-16 14:00:01,14.98615882,0.0003144,70.002,18.3282,267.5357,213.1413,-0.034241,-0.00389628,0.0,0 STARLINK-5318,1 55304U 23010AM  23167.58334491 -.00389628  00000-0 -34241-1 0  9992,2 55304  70.0020  18.3282 0003144 267.5357 213.1413 14.98615882 23618,6949.309,96.089,573.359,568.989,0.0
55304.0,STARLINK-5318,PAYLOAD,2023-06-16 22:00:00,14.98316189,0.0003044,70.0018,17.4874,273.7012,204.6294,0.0015449,0.00018382,0.0,0 STARLINK-5318,1 55304U 23010AM  23167.91667824  .00018382  00000-0  15449-2 0  9992,2 55304  70.0018  17.4874 0003044 273.7012 204.6294 14.98316189 23663,6950.236,96.108,574.216,569.985,0.0
55304.0,STARLINK-5318,PAYLOAD,2023-06-17 14:00:01,14.98323382,0.0003013,70.0018,15.8065,267.7025,205.5677,0.0013268,0.00015771,0.0,0 STARLINK-5318,1 55304U 23010AM  23168.58334491  .00015771  00000-0  13268-2 0  9993,2 55304  70.0018  15.8065 0003013 267.7025 205.5677 14.98323382 23769,6950.213,96.107,574.172,569.984,0.0
55304.0,STARLINK-5318,PAYLOAD,2023-06-17 19:54:26,14.99034132,0.0002345,69.9998,15.1864,258.6573,101.4323,-0.01084,-0.00129411,0.0,0 STARLINK-5318,1 55304U 23010AM  23168.82946768 -.00129411  00000-0 -10840-1 0  9997,2 55304  69.9998  15.1864 0002345 258.6573 101.4323 14.99034132 24101,6948.016,96.062,571.511,568.252,0.0
55304.0,STARLINK-5318,PAYLOAD,2023-06-18 14:00:01,14.98340139,0.0003091,70.0016,13.2847,266.8165,198.9544,0.00091352,0.00010827,0.0,0 STARLINK-5318,1 55304U 23010AM  23169.58335648  .00010827  00000-0  91352-3 0  9997,2 55304  70.0016  13.2847 0003091 266.8165 198.9544 14.98340139 23912,6950.162,96.106,574.175,569.878,0.0
55304.0,STARLINK-5318,PAYLOAD,2023-06-18 19:56:18,14.98500803,0.0002833,70.0,12.661,273.2956,86.7879,-0.0027559,-0.00032967,0.0,0 STARLINK-5318,1 55304U 23010AM  23169.83076727 -.00032967  00000-0 -27559-2 0  9993,2 55304  70.0000  12.6610 0002833 273.2956  86.7879 14.98500803 23943,6949.665,96.096,573.499,569.561,0.0
55304.0,STARLINK-5318,PAYLOAD,2023-06-19 04:00:00,14.98349156,0.000315,70.0012,11.8136,271.2546,100.0692,-0.0038331,-0.00045556,0.0,0 STARLINK-5318,1 55304U 23010AM  23170.16667824 -.00045556  00000-0 -38331-2 0  9993,2 55304  70.0012  11.8136 0003150 271.2546 100.0692 14.98349156 24009,6950.134,96.106,574.188,569.809,0.0
55304.0,STARLINK-5318,PAYLOAD,2023-06-19 13:33:49,14.9832609,0.0003037,70.0002,10.809,270.6046,89.4765,4.7708e-05,4.76e-06,0.0,0 STARLINK-5318,1 55304U 23010AM  23170.56515375  .00000476  00000-0  47708-4 0  9990,2 55304  70.0002  10.8090 0003037 270.6046  89.4765 14.98326090 24056,6950.205,96.107,574.181,569.959,0.0
55304.0,STARLINK-5318,PAYLOAD,2023-06-19 14:00:01,14.98342441,0.0003185,70.0017,10.763,265.3949,192.778,0.00046154,5.42e-05,0.0,0 STARLINK-5318,1 55304U 23010AM  23170.58334491  .00005420  00000-0  46154-3 0  9997,2 55304  70.0017  10.7630 0003185 265.3949 192.7780 14.98342441 24062,6950.154,96.106,574.233,569.806,0.0
55304.0,STARLINK-5318,PAYLOAD,2023-06-19 22:00:00,14.98332167,0.0003184,70.0016,9.9224,272.0592,183.6147,-0.00040364,-4.906e-05,0.0,0 STARLINK-5318,1 55304U 23010AM  23170.91667824 -.00004906  00000-0 -40364-3 0  9990,2 55304  70.0016   9.9224 0003184 272.0592 183.6147 14.98332167  1300,6950.186,96.107,574.264,569.838,0.0
55304.0,STARLINK-5318,PAYLOAD,2023-06-20 07:11:17,14.98330978,0.0003011,70.0003,8.9569,268.2979,91.7835,3.8927e-05,3.72e-06,0.0,0 STARLINK-5318,1 55304U 23010AM  23171.29951107  .00000372  00000-0  38927-4 0  9996,2 55304  70.0003   8.9569 0003011 268.2979  91.7835 14.98330978 24476,6950.19,96.107,574.148,569.962,0.0
55304.0,STARLINK-5318,PAYLOAD,2023-06-20 16:48:06,14.98330313,0.0002948,70.0007,7.9479,271.2807,88.8014,-1.7083e-05,-2.97e-06,0.0,0 STARLINK-5318,1 55304U 23010AM  23171.70007298 -.00000297  00000-0 -17083-4 0  9993,2 55304  70.0007   7.9479 0002948 271.2807  88.8014 14.98330313 24223,6950.192,96.107,574.106,570.008,0.0
55304.0,STARLINK-5318,PAYLOAD,2023-06-20 20:00:22,14.98331354,0.0003033,69.9998,7.6104,265.9541,94.1271,-4.6416e-05,-6.47e-06,0.0,0 STARLINK-5318,1 55304U 23010AM  23171.83359224 -.00000647  00000-0 -46416-4 0  9997,2 55304  69.9998   7.6104 0003033 265.9541  94.1271 14.98331354 24559,6950.189,96.107,574.162,569.946,0.0
55304.0,STARLINK-5318,PAYLOAD,2023-06-21 13:37:50,14.98329038,0.0003093,70.0,5.7592,269.0384,91.0421,1.0017e-05,2.7e-07,0.0,0 STARLINK-5318,1 55304U 23010AM  23172.56795119  .00000027  00000-0  10017-4 0  9993,2 55304  70.0000   5.7592 0003093 269.0384  91.0421 14.98329038 24663,6950.196,96.107,574.211,569.911,0.0
55304.0,STARLINK-5318,PAYLOAD,2023-06-21 18:26:14,14.98340055,0.0003169,70.0002,5.2545,270.6405,89.4391,-0.0001421,-1.789e-05,0.0,0 STARLINK-5318,1 55304U 23010AM  23172.76822760 -.00001789  00000-0 -14210-3 0  9994,2 55304  70.0002   5.2545 0003169 270.6405  89.4391 14.98340055 24382,6950.162,96.106,574.229,569.824,0.0
55304.0,STARLINK-5318,PAYLOAD,2023-06-21 20:02:22,14.98340191,0.0003157,70.0002,5.0861,270.571,89.5087,-0.00013439,-1.697e-05,0.0,0 STARLINK-5318,1 55304U 23010AM  23172.83498695 -.00001697  00000-0 -13439-3 0  9998,2 55304  70.0002   5.0861 0003157 270.5710  89.5087 14.98340191 24706,6950.161,96.106,574.221,569.832,0.0
55304.0,STARLINK-5318,PAYLOAD,2023-06-22 05:39:11,14.9832774,0.0002915,70.0004,4.0761,270.3999,89.6826,1.2782e-05,6e-07,0.0,0 STARLINK-5318,1 55304U 23010AM  23173.23555158  .00000060  00000-0  12782-4 0  9993,2 55304  70.0004   4.0761 0002915 270.3999  89.6826 14.98327740 24453,6950.2,96.107,574.091,570.039,0.0
55304.0,STARLINK-5318,PAYLOAD,2023-06-23 05:41:12,14.98331268,0.0003049,70.0002,1.5513,272.7003,87.3807,-1.4598e-05,-2.67e-06,0.0,0 STARLINK-5318,1 55304U 23010AM  23174.23695002 -.00000267  00000-0 -14598-4 0  9995,2 55304  70.0002   1.5513 0003049 272.7003  87.3807 14.98331268 24600,6950.189,96.107,574.173,569.935,0.0
55304.0,STARLINK-5318,PAYLOAD,2023-06-24 05:43:13,14.98329259,0.0002993,70.0003,359.0266,271.3616,88.7201,-2.3165e-05,-3.69e-06,0.0,0 STARLINK-5318,1 55304U 23010AM  23175.23835056 -.00000369  00000-0 -23165-4 0  9994,2 55304  70.0003 359.0266 0002993 271.3616  88.7201 14.98329259 24755,6950.195,96.107,574.14,569.98,0.0
55304.0,STARLINK-5318,PAYLOAD,2023-06-25 05:45:14,14.98323408,0.0003066,70.0003,356.5014,273.2187,86.8621,6.8034e-05,7.19e-06,0.0,0 STARLINK-5318,1 55304U 23010AM  23176.23975209  .00000719  00000-0  68034-4 0  9991,2 55304  70.0003 356.5014 0003066 273.2187  86.8621 14.98323408 24906,6950.213,96.107,574.209,569.947,0.0
55304.0,STARLINK-5318,PAYLOAD,2023-06-25 21:46:34,14.98330661,0.0003076,70.0003,354.8178,268.2797,91.801,-1.0282e-05,-2.16e-06,0.0,0 STARLINK-5318,1 55304U 23010AM  23176.90734944 -.00000216  00000-0 -10282-4 0  9990,2 55304  70.0003 354.8178 0003076 268.2797  91.8010 14.98330661 25009,6950.191,96.107,574.194,569.918,0.0
55304.0,STARLINK-5318,PAYLOAD,2023-06-27 20:14:28,14.98330135,0.000312,70.0006,349.9373,266.7983,93.2819,2.9503e-05,2.59e-06,0.0,0 STARLINK-5318,1 55304U 23010AM  23178.84338949  .00000259  00000-0  29503-4 0  9991,2 55304  70.0006 349.9373 0003120 266.7983  93.2819 14.98330135 25294,6950.192,96.107,574.226,569.889,0.0
